NORAD_CAT_ID,OBJECT_NAME,OBJECT_TYPE,EPOCH,MEAN_MOTION,ECCENTRICITY,INCLINATION,RA_OF_ASC_NODE,ARG_OF_PERICENTER,MEAN_ANOMALY,BSTAR,MEAN_MOTION_DOT,MEAN_MOTION_DDOT,TLE_LINE0,TLE_LINE1,TLE_LINE2,SEMIMAJOR_AXIS,PERIOD,APOGEE,PERIGEE,DECAYED
49769.0,STARLINK-3208,PAYLOAD,2024-05-07 14:01:08,15.08835374,0.0001327,53.2168,271.8802,74.4584,285.6555,5.8447e-05,6.42e-06,0.0,0 STARLINK-3208,1 49769U 21115AX  24128.58413010  .00000642  00000-0  58447-4 0  9998,2 49769  53.2168 271.8802 0001327  74.4584 285.6555 15.08835374134362,6917.895,95.438,540.678,538.842,0.0
49769.0,STARLINK-3208,PAYLOAD,2024-05-07 18:47:18,15.08839192,9.7e-05,53.2162,270.989,98.5978,261.5124,0.0001276,1.744e-05,0.0,0 STARLINK-3208,1 49769U 21115AX  24128.78284828  .00001744  00000-0  12760-3 0  9994,2 49769  53.2162 270.9890 0000970  98.5978 261.5124 15.08839192135504,6917.883,95.438,540.419,539.077,0.0
49769.0,STARLINK-3208,PAYLOAD,2024-05-08 13:51:55,15.08848905,8.96e-05,53.2154,267.4199,92.0822,268.0273,0.00045474,6.959e-05,0.0,0 STARLINK-3208,1 49769U 21115AX  24129.57772822  .00006959  00000-0  45474-3 0  9999,2 49769  53.2154 267.4199 0000896  92.0822 268.0273 15.08848905134511,6917.853,95.437,540.338,539.098,0.0
49769.0,STARLINK-3208,PAYLOAD,2024-05-08 15:27:18,15.08851015,9.19e-05,53.2148,267.121,101.8076,258.3019,0.00067652,0.00010499,0.0,0 STARLINK-3208,1 49769U 21115AX  24129.64396803  .00010499  00000-0  67652-3 0  9994,2 49769  53.2148 267.1210 0000919 101.8076 258.3019 15.08851015134528,6917.847,95.437,540.347,539.076,0.0
49769.0,STARLINK-3208,PAYLOAD,2024-05-09 13:42:42,15.08852131,8.48e-05,53.2129,262.959,87.0119,273.097,0.0003877,5.89e-05,0.0,0 STARLINK-3208,1 49769U 21115AX  24130.57132512  .00005890  00000-0  38770-3 0  9991,2 49769  53.2129 262.9590 0000848  87.0119 273.0970 15.08852131134660,6917.843,95.437,540.295,539.122,0.0
49769.0,STARLINK-3208,PAYLOAD,2024-05-09 15:18:05,15.0885181,8.24e-05,53.214,262.6621,84.9875,275.1211,0.00034706,5.242e-05,0.0,0 STARLINK-3208,1 49769U 21115AX  24130.63756503  .00005242  00000-0  34706-3 0  9996,2 49769  53.2140 262.6621 0000824  84.9875 275.1211 15.08851810135782,6917.844,95.437,540.279,539.139,0.0
49769.0,STARLINK-3208,PAYLOAD,2024-05-10 13:33:29,15.08844312,0.0001021,53.2156,258.4985,77.9786,282.132,6.0803e-05,6.8e-06,0.0,0 STARLINK-3208,1 49769U 21115AX  24131.56492718  .00000680  00000-0  60803-4 0  9993,2 49769  53.2156 258.4985 0001021  77.9786 282.1320 15.08844312135922,6917.867,95.437,540.439,539.026,0.0
49769.0,STARLINK-3208,PAYLOAD,2024-05-10 15:08:52,15.08848798,9.08e-05,53.2163,258.1996,86.4951,273.6145,4.2722e-05,3.92e-06,0.0,0 STARLINK-3208,1 49769U 21115AX  24131.63116356  .00000392  00000-0  42722-4 0  9992,2 49769  53.2163 258.1996 0000908  86.4951 273.6145 15.08848798134821,6917.853,95.437,540.347,539.09,0.0
49769.0,STARLINK-3208,PAYLOAD,2024-05-11 13:24:12,15.0894071,0.0001528,53.2173,254.0373,104.42,255.6962,0.0017283,0.00027401,0.0,0 STARLINK-3208,1 49769U 21115AX  24132.55847749  .00027401  00000-0  17283-2 0  9993,2 49769  53.2173 254.0373 0001528 104.4200 255.6962 15.08940710136076,6917.573,95.431,540.495,538.381,0.0
49769.0,STARLINK-3208,PAYLOAD,2024-05-11 18:10:21,15.08923455,9.58e-05,53.2175,253.1473,81.4682,278.6419,0.0013281,0.0002096,0.0,0 STARLINK-3208,1 49769U 21115AX  24132.75719340  .00020960  00000-0  13281-2 0  9997,2 49769  53.2175 253.1473 0000958  81.4682 278.6419 15.08923455136106,6917.625,95.432,540.153,538.828,0.0
49769.0,STARLINK-3208,PAYLOAD,2024-05-12 00:31:58,15.08809417,0.0004044,53.2164,251.9553,87.7075,272.438,-0.0012528,-0.00020159,0.0,0 STARLINK-3208,1 49769U 21115AX  24133.02220006 -.00020159  00000-0 -12528-2 0  9999,2 49769  53.2164 251.9553 0004044  87.7075 272.4380 15.08809417136148,6917.974,95.439,542.636,537.041,0.0
49769.0,STARLINK-3208,PAYLOAD,2024-05-12 13:15:04,15.08762942,0.0001539,53.2179,249.581,96.5718,263.5449,-0.0018751,-0.00029944,0.0,0 STARLINK-3208,1 49769U 21115AX  24133.55213957 -.00029944  00000-0 -18751-2 0  9999,2 49769  53.2179 249.5810 0001539  96.5718 263.5449 15.08762942136228,6918.116,95.442,541.046,538.916,0.0
49769.0,STARLINK-3208,PAYLOAD,2024-05-12 14:50:28,15.08761182,0.0001605,53.218,249.284,98.0636,262.0538,-0.0018232,-0.00029125,0.0,0 STARLINK-3208,1 49769U 21115AX  24133.61838275 -.00029125  00000-0 -18232-2 0  9997,2 49769  53.2180 249.2840 0001605  98.0636 262.0538 15.08761182135126,6918.121,95.443,541.097,538.876,0.0
49769.0,STARLINK-3208,PAYLOAD,2024-05-13 00:22:47,15.08778481,0.0001157,53.2166,247.4973,79.6893,280.423,-0.00030994,-5.209e-05,0.0,0 STARLINK-3208,1 49769U 21115AX  24134.01582982 -.00005209  00000-0 -30994-3 0  9990,2 49769  53.2166 247.4973 0001157  79.6893 280.4230 15.08778481136291,6918.068,95.441,540.734,539.133,0.0
49769.0,STARLINK-3208,PAYLOAD,2024-05-13 11:30:30,15.08823357,0.0001443,53.2167,245.4171,80.2799,279.8356,0.0017865,0.00028246,0.0,0 STARLINK-3208,1 49769U 21115AX  24134.47951673  .00028246  00000-0  17865-2 0  9992,2 49769  53.2167 245.4171 0001443  80.2799 279.8356 15.08823357136363,6917.931,95.439,540.795,538.798,0.0
49769.0,STARLINK-3208,PAYLOAD,2024-05-13 14:41:15,15.08834395,0.0001238,53.2163,244.8242,86.1449,273.9685,0.0009696,0.00015174,0.0,0 STARLINK-3208,1 49769U 21115AX  24134.61198842  .00015174  00000-0  96960-3 0  9999,2 49769  53.2163 244.8242 0001238  86.1449 273.9685 15.08834395135273,6917.898,95.438,540.619,538.906,0.0
49769.0,STARLINK-3208,PAYLOAD,2024-05-13 16:16:39,15.0883991,0.0001967,53.2162,244.5258,78.1743,281.947,0.0011807,0.00018553,0.0,0 STARLINK-3208,1 49769U 21115AX  24134.67822955  .00018553  00000-0  11807-2 0  9994,2 49769  53.2162 244.5258 0001967  78.1743 281.9470 15.08839910136396,6917.881,95.438,541.106,538.385,0.0
49769.0,STARLINK-3208,PAYLOAD,2024-05-14 11:21:16,15.08857409,0.0001964,53.2148,240.9576,78.0261,282.0952,0.00024851,3.671e-05,0.0,0 STARLINK-3208,1 49769U 21115AX  24135.47310383  .00003671  00000-0  24851-3 0  9999,2 49769  53.2148 240.9576 0001964  78.0261 282.0952 15.08857409136518,6917.827,95.436,541.051,538.334,0.0
49769.0,STARLINK-3208,PAYLOAD,2024-05-15 12:47:25,15.08860151,0.0001664,53.2164,236.1972,73.0157,287.1018,5.3951e-06,-2.02e-06,0.0,0 STARLINK-3208,1 49769U 21115AX  24136.53293626 -.00000202  00000-0  53951-5 0  9990,2 49769  53.2164 236.1972 0001664  73.0157 287.1018 15.08860151136673,6917.819,95.436,540.835,538.533,0.0
49769.0,STARLINK-3208,PAYLOAD,2024-05-15 14:22:47,15.08870163,0.0001494,53.2172,235.8991,66.4237,293.6912,7.5878e-05,9.21e-06,0.0,0 STARLINK-3208,1 49769U 21115AX  24136.59916603  .00000921  00000-0  75878-4 0  9991,2 49769  53.2172 235.8991 0001494  66.4237 293.6912 15.08870163135572,6917.788,95.436,540.687,538.62,0.0
49769.0,STARLINK-3208,PAYLOAD,2024-05-15 15:58:10,15.08874246,0.0001323,53.2171,235.6002,68.7294,291.3839,8.9589e-05,1.139e-05,0.0,0 STARLINK-3208,1 49769U 21115AX  24136.66540137  .00001139  00000-0  89589-4 0  9990,2 49769  53.2171 235.6002 0001323  68.7294 291.3839 15.08874246136694,6917.776,95.435,540.556,538.725,0.0
49769.0,STARLINK-3208,PAYLOAD,2024-05-15 23:55:07,15.0885338,0.0001764,53.217,234.1157,80.9162,279.203,1.1812e-05,-1e-06,0.0,0 STARLINK-3208,1 49769U 21115AX  24136.99661450 -.00000100  00000-0  11812-4 0  9990,2 49769  53.2170 234.1157 0001764  80.9162 279.2030 15.08853380136747,6917.839,95.437,540.925,538.484,0.0
49769.0,STARLINK-3208,PAYLOAD,2024-05-16 12:38:12,15.08851009,0.0001367,53.2147,231.7348,88.7705,271.3444,7.8479e-05,9.62e-06,0.0,0 STARLINK-3208,1 49769U 21115AX  24137.52652778  .00000962  00000-0  78479-4 0  9990,2 49769  53.2147 231.7348 0001367  88.7705 271.3444 15.08851009135718,6917.847,95.437,540.657,538.766,0.0
49769.0,STARLINK-3208,PAYLOAD,2024-05-16 23:45:52,15.08852916,0.0001066,53.215,229.6519,97.1719,262.9394,0.00023075,3.388e-05,0.0,0 STARLINK-3208,1 49769U 21115AX  24137.99019631  .00003388  00000-0  23075-3 0  9992,2 49769  53.2150 229.6519 0001066  97.1719 262.9394 15.08852916136891,6917.841,95.437,540.443,538.968,0.0
49769.0,STARLINK-3208,PAYLOAD,2024-05-17 12:28:58,15.0884843,0.0001767,53.2174,227.2733,95.8652,264.2542,-0.0001142,-2.106e-05,0.0,0 STARLINK-3208,1 49769U 21115AX  24138.52012205 -.00002106  00000-0 -11420-3 0  9992,2 49769  53.2174 227.2733 0001767  95.8652 264.2542 15.08848430136973,6917.855,95.437,540.942,538.497,0.0
49769.0,STARLINK-3208,PAYLOAD,2024-05-18 12:19:45,15.08853614,0.0001382,53.2162,222.813,104.1022,256.0123,5.5368e-05,5.94e-06,0.0,0 STARLINK-3208,1 49769U 21115AX  24139.51371738  .00000594  00000-0  55368-4 0  9998,2 49769  53.2162 222.8130 0001382 104.1022 256.0123 15.08853614136019,6917.839,95.437,540.66,538.748,0.0
49769.0,STARLINK-3208,PAYLOAD,2024-05-18 15:30:31,15.08848361,0.0001715,53.2151,222.2167,106.2875,253.8305,0.00011642,1.566e-05,0.0,0 STARLINK-3208,1 49769U 21115AX  24139.64620105  .00001566  00000-0  11642-3 0  9993,2 49769  53.2151 222.2167 0001715 106.2875 253.8305 15.08848361137145,6917.855,95.437,540.906,538.533,0.0
49769.0,STARLINK-3208,PAYLOAD,2024-05-19 12:10:36,15.08809014,0.0001427,53.2164,218.3568,80.9039,279.2114,-0.0002622,-4.455e-05,0.0,0 STARLINK-3208,1 49769U 21115AX  24140.50736492 -.00004455  00000-0 -26220-3 0  9997,2 49769  53.2164 218.3568 0001427  80.9039 279.2114 15.08809014136163,6917.975,95.44,540.827,538.853,0.0
49769.0,STARLINK-3208,PAYLOAD,2024-05-20 05:39:48,15.08846145,0.0001891,53.2164,215.0818,95.0214,265.0994,8.5502e-05,1.073e-05,0.0,0 STARLINK-3208,1 49769U 21115AX  24141.23597987  .00001073  00000-0  85502-4 0  9992,2 49769  53.2164 215.0818 0001891  95.0214 265.0994 15.08846145137382,6917.862,95.437,541.035,538.418,0.0
49769.0,STARLINK-3208,PAYLOAD,2024-05-20 10:25:56,15.08862508,0.0001776,53.2167,214.1902,94.2165,265.903,0.00021981,3.214e-05,0.0,0 STARLINK-3208,1 49769U 21115AX  24141.43468541  .00003214  00000-0  21981-3 0  9996,2 49769  53.2167 214.1902 0001776  94.2165 265.9030 15.08862508137412,6917.812,95.436,540.905,538.448,0.0
